{"fetched_at":"2026-03-29T16:36:15Z","count":15609,"tles":[{"name":"STARLINK-31552","line1":"1 59356U 24060J   26087.55216123 -.00000929  00000+0 -24245-4 0  9990","line2":"2 59356  42.9999 153.6879 0000628 267.6675  92.4105 15.27582484112940","category":"Starlink"}]}